BEESAT-4                
1 41619U 16040W   22095.58644630  .00016151  00000+0  57685-3 0  9993
2 41619  97.2259 148.2407 0009986  26.2835 333.8910 15.28874278309585
CAS-2T & KS-1Q          
1 41847U 16066G   22095.72802691  .00001461  00000+0  22718-3 0  9990
2 41847  98.5580 160.4549 0365287  67.4677 296.4742 14.38464855283890
NAYIF-1 (EO-88)         
1 42017U 17008BX  22095.73736076  .00019008  00000+0  61599-3 0  9997
2 42017  97.2757 163.0143 0006599 140.9160 219.2560 15.32025139285934
ZHUHAI-1 02 (CAS-4B)    
1 42759U 17034B   22095.82762927  .00007011  00000+0  42191-3 0  9991
2 42759  43.0192  12.8298 0008329 201.6684 261.7413 15.11263665265369
ZHUHAI-1 01 (CAS-4A)    
1 42761U 17034D   22095.93173718  .00006839  00000+0  41081-3 0  9994
2 42761  43.0187  11.0963 0008839 204.8608 246.9304 15.11353853265388
MAX VALIER SAT          
1 42778U 17036P   22095.88089338  .00009880  00000+0  39071-3 0  9997
2 42778  97.2150 139.5063 0010447 214.7101 145.3457 15.25615666265839
RADFXSAT (FOX-1B)       
1 43017U 17073E   22095.67992168  .00005963  00000+0  45056-3 0  9994
2 43017  97.6829 352.8426 0252466  66.1984 296.5479 14.80709019236346
FOX-1D (AO-92)          
1 43137U 18004AC  22095.69586261  .00012333  00000+0  45690-3 0  9990
2 43137  97.3723 171.5769 0006807 255.1268 104.9218 15.27764493235235
DIWATA-2B               
1 43678U 18084H   22095.82253823  .00001606  00000+0  16401-3 0  9997
2 43678  97.9568 228.2973 0010305 158.1761 201.9882 14.92012002187024
ES'HAIL 2               
1 43700U 18090A   22095.84164804  .00000142  00000+0  00000+0 0  9990
2 43700   0.0141 252.6451 0002296 149.6252 120.6410  1.00274695 12309
FOX-1CLIFF (AO-95)      
1 43770U 18099N   22095.82917167  .00002980  00000+0  27016-3 0  9994
2 43770  97.6265 164.0646 0014894 154.6756 205.5199 14.96000853182159
ITASAT 1                
1 43786U 18099AE  22095.89780308  .00002616  00000+0  23654-3 0  9993
2 43786  97.6292 165.0079 0015657 147.5688 212.6499 14.96207962182208
JY1SAT (JO-97)          
1 43803U 18099AX  22095.73671537  .00004761  00000+0  42187-3 0  9994
2 43803  97.6253 164.5909 0016061 147.0298 213.1928 14.96599636182196
UWE-4                   
1 43880U 18111E   22095.72135068  .00003475  00000+0  30153-3 0  9998
2 43880  97.6722   3.3109 0011308 199.5935 160.4854 14.97657408178812
NEXUS (FO-99)           
1 43937U 19003F   22095.82321555  .00015927  00000+0  56762-3 0  9990
2 43937  97.1396 132.0624 0022796  57.3415 303.0021 15.28741964178879
PSAT2 (NO-104)          
1 44354U 19036R   22095.90873244  .00051202 -58236-5  52566-3 0  9991
2 44354  28.5283 317.7495 0261238 238.7951 118.6795 15.30846557153520
BRICSAT2 (NO-103)       
1 44355U 19036S   22095.55021087  .00627622  13757-3  15526-2 0  9998
2 44355  28.5161 194.4632 0088025  79.5959 281.4560 15.88103652154715
JAISAT-1                
1 44419U 19038F   22095.86493494  .00012873  00000+0  67051-3 0  9990
2 44419  97.6301  65.5047 0020723  28.8933 331.3442 15.15951781152050
DUCHIFAT-3              
1 44854U 19089C   22095.92111080  .00005989  00000+0  47216-3 0  9995
2 44854  36.9631 170.1560 0008343 345.8152  14.2362 15.00480132127036
CAS-6 (TO-108)          
1 44881U 19093C   22095.77891348  .00000990  00000+0  13236-3 0  9997
2 44881  97.8957 176.0275 0016441  65.3179 294.9756 14.81624178124019
RS-44 & BREEZE-KM R/B   
1 44909U 19096E   22095.87301548  .00000018  00000+0  18581-4 0  9990
2 44909  82.5166 278.5005 0218256 129.2958 232.7724 12.79712820106220
ORBITAL FACTORY 2 (OF-2)
1 45113U 19071C   22095.92086692  .00027552  00000+0  65251-3 0  9994
2 45113  51.6397  55.2404 0008280 272.3840  87.6197 15.41527979122172
HUSKYSAT-1 (HO-107)     
1 45119U 19071J   22095.89329205  .00027232  00000+0  65573-3 0  9998
2 45119  51.6403  55.0377 0008110 267.9214  92.0842 15.41034298122163
BY70-2                  
1 45857U 20042B   22095.84636783  .00010222  00000+0  13983-2 0  9992
2 45857  97.9575 173.4360 0009718 359.0768   1.0448 14.78690920 94725
SALSAT                  
1 46495U 20068K   22095.79301744  .00003767  00000+0  27562-3 0  9994
2 46495  97.7228  37.1203 0017049 159.4882 200.7032 15.04098054 83268
BY70-3                  
1 46839U 20079N   22095.95787578  .00028186  00000+0  73941-3 0  9993
2 46839  97.2053 169.1568 0005661 221.0854 312.7156 15.38602253 79088
RADFXSAT-2 (AO-109)     
1 47311U 21002C   22095.80590242  .00010650  00000+0  44721-3 0  9991
2 47311  60.6860 275.4493 0013303 226.4995 133.4988 15.23903106 67385
UVSQ-SAT                
1 47438U 21006AB  22095.70312860  .00008101  00000+0  44031-3 0  9994
2 47438  97.4450 156.2279 0012965 161.5033 198.6673 15.14679225 66263
DIY-1 (ARDUIQUBE)       
1 47963U 21022AH  22095.69434976  .00019071  00000+0  11415-2 0  9993
2 47963  97.5375 358.0092 0018966  29.9509 330.2801 15.10914262 55950
XW-3 (CAS-9)            
1 50466U 21131B   22095.41469229  .00000334  00000+0  12398-3 0  9999
2 50466  98.5835 172.6963 0004527  23.5666 336.5727 14.38459768 14419
